{"fetched_at":"2026-07-16T17:46:49.281Z","source":"https://celestrak.org/NORAD/elements/gp.php?NAME=NUSAT&FORMAT=JSON","constellation":"satellogic","records":[{"OBJECT_NAME":"NUSAT-26 (M SOMERVILLE)","OBJECT_ID":"2022-033AD","EPOCH":"2026-07-16T05:38:23.269920","CLASSIFICATION_TYPE":"U","MEAN_MOTION":15.43271187,"ECCENTRICITY":0.00070999,"INCLINATION":97.2339,"RA_OF_ASC_NODE":276.1085,"ARG_OF_PERICENTER":134.8323,"MEAN_ANOMALY":225.3503,"EPHEMERIS_TYPE":0,"NORAD_CAT_ID":52184,"ELEMENT_SET_NO":999,"REV_AT_EPOCH":10918,"BSTAR":0.00024591343,"MEAN_MOTION_DOT":0.00010862,"MEAN_MOTION_DDOT":0},{"OBJECT_NAME":"NUSAT-33 (ALBANIA-2)","OBJECT_ID":"2023-001AQ","EPOCH":"2026-07-16T06:50:59.271072","CLASSIFICATION_TYPE":"U","MEAN_MOTION":15.28275406,"ECCENTRICITY":0.00047648,"INCLINATION":97.3054,"RA_OF_ASC_NODE":257.6347,"ARG_OF_PERICENTER":309.6875,"MEAN_ANOMALY":50.3944,"EPHEMERIS_TYPE":0,"NORAD_CAT_ID":55047,"ELEMENT_SET_NO":999,"REV_AT_EPOCH":19675,"BSTAR":0.00017150932,"MEAN_MOTION_DOT":0.00004652,"MEAN_MOTION_DDOT":0},{"OBJECT_NAME":"NUSAT-35 (WILLIAMINA)","OBJECT_ID":"2023-001AR","EPOCH":"2026-07-16T07:03:53.503200","CLASSIFICATION_TYPE":"U","MEAN_MOTION":15.3584039,"ECCENTRICITY":0.00103214,"INCLINATION":97.1832,"RA_OF_ASC_NODE":249.3176,"ARG_OF_PERICENTER":6.2994,"MEAN_ANOMALY":353.8378,"EPHEMERIS_TYPE":0,"NORAD_CAT_ID":55048,"ELEMENT_SET_NO":999,"REV_AT_EPOCH":19687,"BSTAR":0.00020525359,"MEAN_MOTION_DOT":0.00007091,"MEAN_MOTION_DDOT":0},{"OBJECT_NAME":"NUSAT-39 (TIKVAH ALPER)","OBJECT_ID":"2023-054Z","EPOCH":"2026-07-16T06:35:58.358400","CLASSIFICATION_TYPE":"U","MEAN_MOTION":15.48051918,"ECCENTRICITY":0.0001739,"INCLINATION":97.3092,"RA_OF_ASC_NODE":107.322,"ARG_OF_PERICENTER":315.7414,"MEAN_ANOMALY":44.3697,"EPHEMERIS_TYPE":0,"NORAD_CAT_ID":56201,"ELEMENT_SET_NO":999,"REV_AT_EPOCH":18295,"BSTAR":0.00029789559,"MEAN_MOTION_DOT":0.00015514,"MEAN_MOTION_DDOT":0},{"OBJECT_NAME":"NUSAT-38 (MARIA AGNESI)","OBJECT_ID":"2023-054AA","EPOCH":"2026-07-16T06:25:19.254144","CLASSIFICATION_TYPE":"U","MEAN_MOTION":15.51239968,"ECCENTRICITY":0.0008644,"INCLINATION":97.3033,"RA_OF_ASC_NODE":108.0543,"ARG_OF_PERICENTER":322.9549,"MEAN_ANOMALY":37.1106,"EPHEMERIS_TYPE":0,"NORAD_CAT_ID":56202,"ELEMENT_SET_NO":999,"REV_AT_EPOCH":18301,"BSTAR":0.00031462967,"MEAN_MOTION_DOT":0.00018369,"MEAN_MOTION_DDOT":0},{"OBJECT_NAME":"NUSAT-37 (JOAN CLARKE)","OBJECT_ID":"2023-054AB","EPOCH":"2026-07-16T06:08:17.515392","CLASSIFICATION_TYPE":"U","MEAN_MOTION":15.59679036,"ECCENTRICITY":0.00079823,"INCLINATION":97.2602,"RA_OF_ASC_NODE":104.9291,"ARG_OF_PERICENTER":140.8772,"MEAN_ANOMALY":219.3063,"EPHEMERIS_TYPE":0,"NORAD_CAT_ID":56203,"ELEMENT_SET_NO":999,"REV_AT_EPOCH":18317,"BSTAR":0.00038163475,"MEAN_MOTION_DOT":0.00030452,"MEAN_MOTION_DDOT":0},{"OBJECT_NAME":"NUSAT-40 (C SHOEMAKER)","OBJECT_ID":"2023-084M","EPOCH":"2026-07-16T07:10:02.928864","CLASSIFICATION_TYPE":"U","MEAN_MOTION":15.82660371,"ECCENTRICITY":0.00040722,"INCLINATION":97.4868,"RA_OF_ASC_NODE":346.2621,"ARG_OF_PERICENTER":185.4674,"MEAN_ANOMALY":174.6551,"EPHEMERIS_TYPE":0,"NORAD_CAT_ID":56943,"ELEMENT_SET_NO":999,"REV_AT_EPOCH":17340,"BSTAR":0.00050678453,"MEAN_MOTION_DOT":0.00106889,"MEAN_MOTION_DDOT":0},{"OBJECT_NAME":"NUSAT-41 (C PAYNE-G)","OBJECT_ID":"2023-084N","EPOCH":"2026-07-16T07:03:33.383232","CLASSIFICATION_TYPE":"U","MEAN_MOTION":15.301659,"ECCENTRICITY":0.00065574,"INCLINATION":97.5555,"RA_OF_ASC_NODE":334.4806,"ARG_OF_PERICENTER":206.8199,"MEAN_ANOMALY":153.2703,"EPHEMERIS_TYPE":0,"NORAD_CAT_ID":56944,"ELEMENT_SET_NO":999,"REV_AT_EPOCH":17223,"BSTAR":0.0001940849,"MEAN_MOTION_DOT":0.00005588,"MEAN_MOTION_DDOT":0},{"OBJECT_NAME":"NUSAT-42 (M WONENBURGER)","OBJECT_ID":"2023-084AL","EPOCH":"2026-07-16T07:00:48.832704","CLASSIFICATION_TYPE":"U","MEAN_MOTION":15.46536962,"ECCENTRICITY":0.00068107,"INCLINATION":97.5753,"RA_OF_ASC_NODE":342.6584,"ARG_OF_PERICENTER":142.5091,"MEAN_ANOMALY":217.6634,"EPHEMERIS_TYPE":0,"NORAD_CAT_ID":56966,"ELEMENT_SET_NO":999,"REV_AT_EPOCH":17257,"BSTAR":0.00025302297,"MEAN_MOTION_DOT":0.00012491,"MEAN_MOTION_DDOT":0},{"OBJECT_NAME":"NUSAT-44 (MARIA MITCHELL)","OBJECT_ID":"2024-043AA","EPOCH":"2026-07-16T07:34:25.012992","CLASSIFICATION_TYPE":"U","MEAN_MOTION":15.2986305,"ECCENTRICITY":0.00065109,"INCLINATION":97.5487,"RA_OF_ASC_NODE":338.0243,"ARG_OF_PERICENTER":128.4935,"MEAN_ANOMALY":231.689,"EPHEMERIS_TYPE":0,"NORAD_CAT_ID":59122,"ELEMENT_SET_NO":999,"REV_AT_EPOCH":13172,"BSTAR":0.00020501853,"MEAN_MOTION_DOT":0.00005853,"MEAN_MOTION_DDOT":0},{"OBJECT_NAME":"NUSAT-50 (NANCY ROMAN)","OBJECT_ID":"2024-149AB","EPOCH":"2026-07-16T04:54:53.231328","CLASSIFICATION_TYPE":"U","MEAN_MOTION":15.30328897,"ECCENTRICITY":0.00048545,"INCLINATION":97.3783,"RA_OF_ASC_NODE":278.2662,"ARG_OF_PERICENTER":98.9859,"MEAN_ANOMALY":261.1931,"EPHEMERIS_TYPE":0,"NORAD_CAT_ID":60493,"ELEMENT_SET_NO":999,"REV_AT_EPOCH":10656,"BSTAR":0.00016234217,"MEAN_MOTION_DOT":0.00004687,"MEAN_MOTION_DDOT":0},{"OBJECT_NAME":"NUSAT-48 (HENRIETTA LEAVITT)","OBJECT_ID":"2024-149AG","EPOCH":"2026-07-16T04:39:06.746976","CLASSIFICATION_TYPE":"U","MEAN_MOTION":15.30284503,"ECCENTRICITY":0.00048778,"INCLINATION":97.3918,"RA_OF_ASC_NODE":278.5494,"ARG_OF_PERICENTER":155.7012,"MEAN_ANOMALY":204.4459,"EPHEMERIS_TYPE":0,"NORAD_CAT_ID":60498,"ELEMENT_SET_NO":999,"REV_AT_EPOCH":10657,"BSTAR":0.00016259742,"MEAN_MOTION_DOT":0.00004687,"MEAN_MOTION_DDOT":0},{"OBJECT_NAME":"NUSAT-49 (KLARA DAN VON NEUMANN)","OBJECT_ID":"2024-149AJ","EPOCH":"2026-07-15T04:32:49.467552","CLASSIFICATION_TYPE":"U","MEAN_MOTION":15.29782935,"ECCENTRICITY":0.00026888,"INCLINATION":97.3783,"RA_OF_ASC_NODE":277.2885,"ARG_OF_PERICENTER":166.4969,"MEAN_ANOMALY":193.6344,"EPHEMERIS_TYPE":0,"NORAD_CAT_ID":60500,"ELEMENT_SET_NO":999,"REV_AT_EPOCH":10641,"BSTAR":0.000091263762,"MEAN_MOTION_DOT":0.00002557,"MEAN_MOTION_DDOT":0},{"OBJECT_NAME":"NUSAT-45 (UZMASAT-1)","OBJECT_ID":"2025-009AH","EPOCH":"2026-07-15T18:24:09.271008","CLASSIFICATION_TYPE":"U","MEAN_MOTION":15.30386447,"ECCENTRICITY":0.0001956,"INCLINATION":97.3592,"RA_OF_ASC_NODE":277.7105,"ARG_OF_PERICENTER":175.8714,"MEAN_ANOMALY":184.2543,"EPHEMERIS_TYPE":0,"NORAD_CAT_ID":62640,"ELEMENT_SET_NO":999,"REV_AT_EPOCH":8329,"BSTAR":0.00017127,"MEAN_MOTION_DOT":0.00004957,"MEAN_MOTION_DDOT":0},{"OBJECT_NAME":"NUSAT-52","OBJECT_ID":"2025-276AC","EPOCH":"2026-07-16T04:21:15.361920","CLASSIFICATION_TYPE":"U","MEAN_MOTION":15.20042092,"ECCENTRICITY":0.00016054,"INCLINATION":97.4198,"RA_OF_ASC_NODE":270.2511,"ARG_OF_PERICENTER":273.0604,"MEAN_ANOMALY":87.0448,"EPHEMERIS_TYPE":0,"NORAD_CAT_ID":66692,"ELEMENT_SET_NO":999,"REV_AT_EPOCH":3482,"BSTAR":0.00011927057,"MEAN_MOTION_DOT":0.00002504,"MEAN_MOTION_DDOT":0},{"OBJECT_NAME":"NUSAT-51 (YVONNE BRILL)","OBJECT_ID":"2025-276CC","EPOCH":"2026-07-16T04:22:27.122304","CLASSIFICATION_TYPE":"U","MEAN_MOTION":15.20572155,"ECCENTRICITY":0.00018067,"INCLINATION":97.4203,"RA_OF_ASC_NODE":270.3958,"ARG_OF_PERICENTER":230.8651,"MEAN_ANOMALY":129.2424,"EPHEMERIS_TYPE":0,"NORAD_CAT_ID":66740,"ELEMENT_SET_NO":999,"REV_AT_EPOCH":3483,"BSTAR":0.00013222553,"MEAN_MOTION_DOT":0.00002827,"MEAN_MOTION_DDOT":0}]}
