NUSAT-26 (M SOMERVILLE) 
1 52184U 22033AD  26197.23499155  .00010862  00000+0  24591-3 0  9993
2 52184  97.2339 276.1085 0007099 134.8323 225.3503 15.43271187109181
NUSAT-33 (ALBANIA-2)    
1 55047U 23001AQ  26197.28540823  .00004652  00000+0  17151-3 0  9998
2 55047  97.3054 257.6347 0004764 309.6875  50.3944 15.28275406196757
NUSAT-35 (WILLIAMINA)   
1 55048U 23001AR  26197.29436925  .00007091  00000+0  20525-3 0  9996
2 55048  97.1832 249.3176 0010321   6.2994 353.8378 15.35840390196879
NUSAT-39 (TIKVAH ALPER) 
1 56201U 23054Z   26197.27498100  .00015514  00000+0  29790-3 0  9999
2 56201  97.3092 107.3220 0001739 315.7414  44.3697 15.48051918182956
NUSAT-38 (MARIA AGNESI) 
1 56202U 23054AA  26197.26758396  .00018369  00000+0  31463-3 0  9996
2 56202  97.3033 108.0543 0008644 322.9549  37.1106 15.51239968183019
NUSAT-37 (JOAN CLARKE)  
1 56203U 23054AB  26197.25575828  .00030452  00000+0  38163-3 0  9994
2 56203  97.2602 104.9291 0007982 140.8772 219.3063 15.59679036183170
NUSAT-40 (C SHOEMAKER)  
1 56943U 23084M   26197.29864501  .00106889  00000+0  50678-3 0  9994
2 56943  97.4868 346.2621 0004072 185.4674 174.6551 15.82660371173406
NUSAT-41 (C PAYNE-G)    
1 56944U 23084N   26197.29413638  .00005588  00000+0  19408-3 0  9996
2 56944  97.5555 334.4806 0006557 206.8199 153.2703 15.30165900172238
NUSAT-42 (M WONENBURGER)
1 56966U 23084AL  26197.29223186  .00012491  00000+0  25302-3 0  9998
2 56966  97.5753 342.6584 0006810 142.5091 217.6634 15.46536962172577
NUSAT-44 (MARIA MITCHE*)
1 59122U 24043AA  26197.31556728  .00005853  00000+0  20502-3 0  9996
2 59122  97.5487 338.0243 0006510 128.4935 231.6890 15.29863050131720
NUSAT-50 (NANCY ROMAN)  
1 60493U 24149AB  26197.20478277  .00004687  00000+0  16234-3 0  9997
2 60493  97.3783 278.2662 0004854  98.9859 261.1931 15.30328897106560
NUSAT-48 (HENRIETTA LE*)
1 60498U 24149AG  26197.19382809  .00004687  00000+0  16260-3 0  9994
2 60498  97.3918 278.5494 0004877 155.7012 204.4459 15.30284503106570
NUSAT-49 (KLARA DAN VO*)
1 60500U 24149AJ  26196.18946143  .00002557  00000+0  91264-4 0  9995
2 60500  97.3783 277.2885 0002688 166.4969 193.6344 15.29782935106417
NUSAT-45 (UZMASAT-1)    
1 62640U 25009AH  26196.76677397  .00004957  00000+0  17127-3 0  9995
2 62640  97.3592 277.7105 0001956 175.8714 184.2543 15.30386447 83298
NUSAT-52                
1 66692U 25276AC  26197.18142780  .00002504  00000+0  11927-3 0  9990
2 66692  97.4198 270.2511 0001605 273.0604  87.0448 15.20042092 34824
NUSAT-51 (YVONNE BRILL) 
1 66740U 25276CC  26197.18225836  .00002827  00000+0  13223-3 0  9997
2 66740  97.4203 270.3958 0001806 230.8651 129.2424 15.20572155 34839
